[{"OBJECT_NAME":"CALSPHERE 1","OBJECT_ID":"1964-063C","EPOCH":"2026-03-02T19:47:44.742624","MEAN_MOTION":13.76487186,"ECCENTRICITY":0.0023455,"INCLINATION":90.2154,"RA_OF_ASC_NODE":69.2941,"ARG_OF_PERICENTER":253.1505,"MEAN_ANOMALY":182.9978,"EPHEMERIS_TYPE":0,"CLASSIFICATION_TYPE":"U","NORAD_CAT_ID":900,"ELEMENT_SET_NO":999,"REV_AT_EPOCH":5679,"BSTAR":0.00074085,"MEAN_MOTION_DOT":7.35e-6,"MEAN_MOTION_DDOT":0},{"OBJECT_NAME":"CALSPHERE 2","OBJECT_ID":"1964-063E","EPOCH":"2026-03-02T12:59:50.616384","MEAN_MOTION":13.52891282,"ECCENTRICITY":0.00188086,"INCLINATION":90.228,"RA_OF_ASC_NODE":73.2694,"ARG_OF_PERICENTER":170.9733,"MEAN_ANOMALY":309.8394,"EPHEMERIS_TYPE":0,"CLASSIFICATION_TYPE":"U","NORAD_CAT_ID":902,"ELEMENT_SET_NO":999,"REV_AT_EPOCH":84184,"BSTAR":6.4296968e-5,"MEAN_MOTION_DOT":5.2e-7,"MEAN_MOTION_DDOT":0},{"OBJECT_NAME":"LCS 1","OBJECT_ID":"1965-034C","EPOCH":"2026-03-02T10:31:02.833536","MEAN_MOTION":9.89309899,"ECCENTRICITY":0.00131779,"INCLINATION":32.1419,"RA_OF_ASC_NODE":70.4773,"ARG_OF_PERICENTER":104.0352,"MEAN_ANOMALY":256.1611,"EPHEMERIS_TYPE":0,"CLASSIFICATION_TYPE":"U","NORAD_CAT_ID":1361,"ELEMENT_SET_NO":999,"REV_AT_EPOCH":19931,"BSTAR":0.00060277592,"MEAN_MOTION_DOT":1.3e-7,"MEAN_MOTION_DDOT":0},{"OBJECT_NAME":"TEMPSAT 1","OBJECT_ID":"1965-065E","EPOCH":"2026-03-02T15:50:39.543360","MEAN_MOTION":13.33588725,"ECCENTRICITY":0.0069577,"INCLINATION":89.9923,"RA_OF_ASC_NODE":212.59,"ARG_OF_PERICENTER":186.3434,"MEAN_ANOMALY":185.7451,"EPHEMERIS_TYPE":0,"CLASSIFICATION_TYPE":"U","NORAD_CAT_ID":1512,"ELEMENT_SET_NO":999,"REV_AT_EPOCH":94585,"BSTAR":5.2661e-5,"MEAN_MOTION_DOT":3.5e-7,"MEAN_MOTION_DDOT":0},{"OBJECT_NAME":"CALSPHERE 4A","OBJECT_ID":"1965-065H","EPOCH":"2026-03-02T12:45:24.884928","MEAN_MOTION":13.36257634,"ECCENTRICITY":0.007086,"INCLINATION":89.9046,"RA_OF_ASC_NODE":123.5384,"ARG_OF_PERICENTER":46.1877,"MEAN_ANOMALY":62.4698,"EPHEMERIS_TYPE":0,"CLASSIFICATION_TYPE":"U","NORAD_CAT_ID":1520,"ELEMENT_SET_NO":999,"REV_AT_EPOCH":94846,"BSTAR":0.00022465,"MEAN_MOTION_DOT":1.27e-6,"MEAN_MOTION_DDOT":0},{"OBJECT_NAME":"OPS 5712 (P/L 160)","OBJECT_ID":"1967-053A","EPOCH":"2026-03-02T18:52:17.020704","MEAN_MOTION":14.76044962,"ECCENTRICITY":0.0004595,"INCLINATION":69.9178,"RA_OF_ASC_NODE":298.7693,"ARG_OF_PERICENTER":229.9207,"MEAN_ANOMALY":130.1538,"EPHEMERIS_TYPE":0,"CLASSIFICATION_TYPE":"U","NORAD_CAT_ID":2826,"ELEMENT_SET_NO":999,"REV_AT_EPOCH":5052,"BSTAR":0.0013249,"MEAN_MOTION_DOT":9.083e-5,"MEAN_MOTION_DDOT":0},{"OBJECT_NAME":"OPS 5712 (P/L 153)","OBJECT_ID":"1967-053H","EPOCH":"2026-03-02T18:47:28.897440","MEAN_MOTION":13.96810177,"ECCENTRICITY":0.0008887,"INCLINATION":69.9763,"RA_OF_ASC_NODE":343.3729,"ARG_OF_PERICENTER":316.9151,"MEAN_ANOMALY":43.1258,"EPHEMERIS_TYPE":0,"CLASSIFICATION_TYPE":"U","NORAD_CAT_ID":2874,"ELEMENT_SET_NO":999,"REV_AT_EPOCH":99192,"BSTAR":8.0945e-5,"MEAN_MOTION_DOT":5.9e-7,"MEAN_MOTION_DDOT":0},{"OBJECT_NAME":"RIGIDSPHERE 2 (LCS 4)","OBJECT_ID":"1971-067E","EPOCH":"2026-03-02T20:24:46.313856","MEAN_MOTION":14.37729094,"ECCENTRICITY":0.0058118,"INCLINATION":87.6266,"RA_OF_ASC_NODE":8.3052,"ARG_OF_PERICENTER":224.2898,"MEAN_ANOMALY":135.3644,"EPHEMERIS_TYPE":0,"CLASSIFICATION_TYPE":"U","NORAD_CAT_ID":5398,"ELEMENT_SET_NO":999,"REV_AT_EPOCH":85860,"BSTAR":0.00029892,"MEAN_MOTION_DOT":9.34e-6,"MEAN_MOTION_DDOT":0},{"OBJECT_NAME":"COSMOS 2493 (SKRL-756 1)","OBJECT_ID":"2013-078A","EPOCH":"2026-03-02T19:36:52.852896","MEAN_MOTION":15.01509922,"ECCENTRICITY":0.0011376,"INCLINATION":82.4161,"RA_OF_ASC_NODE":5.204,"ARG_OF_PERICENTER":240.3533,"MEAN_ANOMALY":119.6559,"EPHEMERIS_TYPE":0,"CLASSIFICATION_TYPE":"U","NORAD_CAT_ID":39490,"ELEMENT_SET_NO":999,"REV_AT_EPOCH":66199,"BSTAR":0.00034498,"MEAN_MOTION_DOT":4.493e-5,"MEAN_MOTION_DDOT":0},{"OBJECT_NAME":"COSMOS 2494 (SKRL-756 2)","OBJECT_ID":"2013-078B","EPOCH":"2026-03-02T19:17:41.451936","MEAN_MOTION":15.04130109,"ECCENTRICITY":0.0015221,"INCLINATION":82.4155,"RA_OF_ASC_NODE":355.048,"ARG_OF_PERICENTER":199.7284,"MEAN_ANOMALY":160.3355,"EPHEMERIS_TYPE":0,"CLASSIFICATION_TYPE":"U","NORAD_CAT_ID":39491,"ELEMENT_SET_NO":999,"REV_AT_EPOCH":66281,"BSTAR":0.00037443,"MEAN_MOTION_DOT":5.229e-5,"MEAN_MOTION_DDOT":0}]
