CALSPHERE 1             
1 00900U 64063C   26061.82482341  .00000735  00000+0  74085-3 0  9996
2 00900  90.2154  69.2941 0023455 253.1505 182.9978 13.76487186 56795
CALSPHERE 2             
1 00902U 64063E   26061.54155806  .00000052  00000+0  64297-4 0  9997
2 00902  90.2280  73.2694 0018808 170.9733 309.8394 13.52891282841842
LCS 1                   
1 01361U 65034C   26061.43822724  .00000013  00000+0  60278-3 0  9995
2 01361  32.1419  70.4773 0013177 104.0352 256.1611  9.89309899199314
TEMPSAT 1               
1 01512U 65065E   26061.66017990  .00000035  00000+0  52661-4 0  9995
2 01512  89.9923 212.5900 0069577 186.3434 185.7451 13.33588725945850
CALSPHERE 4A            
1 01520U 65065H   26061.53153802  .00000127  00000+0  22465-3 0  9993
2 01520  89.9046 123.5384 0070860  46.1877  62.4698 13.36257634948462
OPS 5712 (P/L 160)      
1 02826U 67053A   26061.78630811  .00009083  00000+0  13249-2 0  9998
2 02826  69.9178 298.7693 0004595 229.9207 130.1538 14.76044962 50524
OPS 5712 (P/L 153)      
1 02874U 67053H   26061.78297335  .00000059  00000+0  80945-4 0  9994
2 02874  69.9763 343.3729 0008887 316.9151  43.1258 13.96810177991927
RIGIDSPHERE 2 (LCS 4)   
1 05398U 71067E   26061.85053604  .00000934  00000+0  29892-3 0  9990
2 05398  87.6266   8.3052 0058118 224.2898 135.3644 14.37729094858607
COSMOS 2493 (SKRL-756 1)
1 39490U 13078A   26061.81727839  .00004493  00000+0  34498-3 0  9994
2 39490  82.4161   5.2040 0011376 240.3533 119.6559 15.01509922661999
COSMOS 2494 (SKRL-756 2)
1 39491U 13078B   26061.80395199  .00005229  00000+0  37443-3 0  9995
2 39491  82.4155 355.0480 0015221 199.7284 160.3355 15.04130109662819
